[{"COMMENT":"GENERATED VIA SPACETRACK.ORG API","ORIGINATOR":"18 SPCS","NORAD_CAT_ID":"45120","OBJECT_NAME":"VPM","OBJECT_TYPE":"PAYLOAD","CLASSIFICATION_TYPE":"U","INTLDES":"19071K","EPOCH":"2020-06-17 19:56:03","EPOCH_MICROSECONDS":"635232","MEAN_MOTION":"15.34026613","ECCENTRICITY":"0.0012451","INCLINATION":"51.6437","RA_OF_ASC_NODE":"1.2228","ARG_OF_PERICENTER":"57.3809","MEAN_ANOMALY":"302.8373","EPHEMERIS_TYPE":"0","ELEMENT_SET_NO":"999","REV_AT_EPOCH":"2107","BSTAR":"0.000086354","MEAN_MOTION_DOT":"0.0000251","MEAN_MOTION_DDOT":"0","FILE":"2767667","TLE_LINE0":"0 VPM","TLE_LINE1":"1 45120U 19071K   20169.83059763  .00002510  00000-0  86354-4 0  9997","TLE_LINE2":"2 45120  51.6437   1.2228 0012451  57.3809 302.8373 15.34026613 21077","OBJECT_ID":"2019-071K","OBJECT_NUMBER":"45120","SEMIMAJOR_AXIS":"6841.950","PERIOD":"93.870","APOGEE":"472.334","PERIGEE":"455.296","DECAYED":"0"},{"COMMENT":"GENERATED VIA SPACETRACK.ORG API","ORIGINATOR":"18 SPCS","NORAD_CAT_ID":"45120","OBJECT_NAME":"VPM","OBJECT_TYPE":"PAYLOAD","CLASSIFICATION_TYPE":"U","INTLDES":"19071K","EPOCH":"2020-06-18 13:07:57","EPOCH_MICROSECONDS":"896832","MEAN_MOTION":"15.3403126","ECCENTRICITY":"0.0012448","INCLINATION":"51.6436","RA_OF_ASC_NODE":"357.7574","ARG_OF_PERICENTER":"59.8824","MEAN_ANOMALY":"300.339","EPHEMERIS_TYPE":"0","ELEMENT_SET_NO":"999","REV_AT_EPOCH":"2118","BSTAR":"0.000096427","MEAN_MOTION_DOT":"0.00002849","MEAN_MOTION_DDOT":"0","FILE":"2768193","TLE_LINE0":"0 VPM","TLE_LINE1":"1 45120U 19071K   20170.54719788 +.00002849 +00000-0 +96427-4 0  9994","TLE_LINE2":"2 45120 051.6436 357.7574 0012448 059.8824 300.3390 15.34031260021187","OBJECT_ID":"2019-071K","OBJECT_NUMBER":"45120","SEMIMAJOR_AXIS":"6841.936","PERIOD":"93.870","APOGEE":"472.318","PERIGEE":"455.284","DECAYED":"0"},{"COMMENT":"GENERATED VIA SPACETRACK.ORG API","ORIGINATOR":"18 SPCS","NORAD_CAT_ID":"45120","OBJECT_NAME":"VPM","OBJECT_TYPE":"PAYLOAD","CLASSIFICATION_TYPE":"U","INTLDES":"19071K","EPOCH":"2020-06-18 20:57:00","EPOCH_MICROSECONDS":"708768","MEAN_MOTION":"15.34032857","ECCENTRICITY":"0.0012457","INCLINATION":"51.6437","RA_OF_ASC_NODE":"356.1824","ARG_OF_PERICENTER":"61.0108","MEAN_ANOMALY":"299.2121","EPHEMERIS_TYPE":"0","ELEMENT_SET_NO":"999","REV_AT_EPOCH":"2123","BSTAR":"0.000097315","MEAN_MOTION_DOT":"0.00002878","MEAN_MOTION_DDOT":"0","FILE":"2768349","TLE_LINE0":"0 VPM","TLE_LINE1":"1 45120U 19071K   20170.87292487 +.00002878 +00000-0 +97315-4 0  9991","TLE_LINE2":"2 45120 051.6437 356.1824 0012457 061.0108 299.2121 15.34032857021236","OBJECT_ID":"2019-071K","OBJECT_NUMBER":"45120","SEMIMAJOR_AXIS":"6841.931","PERIOD":"93.870","APOGEE":"472.319","PERIGEE":"455.273","DECAYED":"0"},{"COMMENT":"GENERATED VIA SPACETRACK.ORG API","ORIGINATOR":"18 SPCS","NORAD_CAT_ID":"45120","OBJECT_NAME":"VPM","OBJECT_TYPE":"PAYLOAD","CLASSIFICATION_TYPE":"U","INTLDES":"19071K","EPOCH":"2020-06-19 00:04:37","EPOCH_MICROSECONDS":"815744","MEAN_MOTION":"15.34033745","ECCENTRICITY":"0.0012455","INCLINATION":"51.6437","RA_OF_ASC_NODE":"355.5523","ARG_OF_PERICENTER":"61.458","MEAN_ANOMALY":"298.7655","EPHEMERIS_TYPE":"0","ELEMENT_SET_NO":"999","REV_AT_EPOCH":"2125","BSTAR":"0.000099309","MEAN_MOTION_DOT":"0.00002945","MEAN_MOTION_DDOT":"0","FILE":"2768600","TLE_LINE0":"0 VPM","TLE_LINE1":"1 45120U 19071K   20171.00321546  .00002945  00000-0  99309-4 0  9996","TLE_LINE2":"2 45120  51.6437 355.5523 0012455  61.4580 298.7655 15.34033745 21256","OBJECT_ID":"2019-071K","OBJECT_NUMBER":"45120","SEMIMAJOR_AXIS":"6841.929","PERIOD":"93.870","APOGEE":"472.315","PERIGEE":"455.272","DECAYED":"0"},{"COMMENT":"GENERATED VIA SPACETRACK.ORG API","ORIGINATOR":"18 SPCS","NORAD_CAT_ID":"45120","OBJECT_NAME":"VPM","OBJECT_TYPE":"PAYLOAD","CLASSIFICATION_TYPE":"U","INTLDES":"19071K","EPOCH":"2020-06-19 12:35:06","EPOCH_MICROSECONDS":"197856","MEAN_MOTION":"15.34036724","ECCENTRICITY":"0.0012445","INCLINATION":"51.6437","RA_OF_ASC_NODE":"353.032","ARG_OF_PERICENTER":"63.2787","MEAN_ANOMALY":"296.9468","EPHEMERIS_TYPE":"0","ELEMENT_SET_NO":"999","REV_AT_EPOCH":"2133","BSTAR":"0.00010159","MEAN_MOTION_DOT":"0.00003022","MEAN_MOTION_DDOT":"0","FILE":"2768844","TLE_LINE0":"0 VPM","TLE_LINE1":"1 45120U 19071K   20171.52437729 +.00003022 +00000-0 +10159-3 0  9996","TLE_LINE2":"2 45120 051.6437 353.0320 0012445 063.2787 296.9468 15.34036724021333","OBJECT_ID":"2019-071K","OBJECT_NUMBER":"45120","SEMIMAJOR_AXIS":"6841.920","PERIOD":"93.869","APOGEE":"472.299","PERIGEE":"455.270","DECAYED":"0"},{"COMMENT":"GENERATED VIA SPACETRACK.ORG API","ORIGINATOR":"18 SPCS","NORAD_CAT_ID":"45120","OBJECT_NAME":"VPM","OBJECT_TYPE":"PAYLOAD","CLASSIFICATION_TYPE":"U","INTLDES":"19071K","EPOCH":"2020-06-19 18:50:20","EPOCH_MICROSECONDS":"339232","MEAN_MOTION":"15.34038667","ECCENTRICITY":"0.0012447","INCLINATION":"51.6437","RA_OF_ASC_NODE":"351.7719","ARG_OF_PERICENTER":"64.1655","MEAN_ANOMALY":"296.0609","EPHEMERIS_TYPE":"0","ELEMENT_SET_NO":"999","REV_AT_EPOCH":"2137","BSTAR":"0.0001061","MEAN_MOTION_DOT":"0.00003174","MEAN_MOTION_DDOT":"0","FILE":"2769175","TLE_LINE0":"0 VPM","TLE_LINE1":"1 45120U 19071K   20171.78495763 +.00003174 +00000-0 +10610-3 0  9996","TLE_LINE2":"2 45120 051.6437 351.7719 0012447 064.1655 296.0609 15.34038667021376","OBJECT_ID":"2019-071K","OBJECT_NUMBER":"45120","SEMIMAJOR_AXIS":"6841.914","PERIOD":"93.869","APOGEE":"472.295","PERIGEE":"455.263","DECAYED":"0"},{"COMMENT":"GENERATED VIA SPACETRACK.ORG API","ORIGINATOR":"18 SPCS","NORAD_CAT_ID":"45120","OBJECT_NAME":"VPM","OBJECT_TYPE":"PAYLOAD","CLASSIFICATION_TYPE":"U","INTLDES":"19071K","EPOCH":"2020-06-19 23:31:45","EPOCH_MICROSECONDS":"921504","MEAN_MOTION":"15.3404038","ECCENTRICITY":"0.0012449","INCLINATION":"51.6437","RA_OF_ASC_NODE":"350.8269","ARG_OF_PERICENTER":"64.8162","MEAN_ANOMALY":"295.411","EPHEMERIS_TYPE":"0","ELEMENT_SET_NO":"999","REV_AT_EPOCH":"2140","BSTAR":"0.00011094","MEAN_MOTION_DOT":"0.00003336","MEAN_MOTION_DDOT":"0","FILE":"2769600","TLE_LINE0":"0 VPM","TLE_LINE1":"1 45120U 19071K   20171.98039261 +.00003336 +00000-0 +11094-3 0  9992","TLE_LINE2":"2 45120 051.6437 350.8269 0012449 064.8162 295.4110 15.34040380021407","OBJECT_ID":"2019-071K","OBJECT_NUMBER":"45120","SEMIMAJOR_AXIS":"6841.909","PERIOD":"93.869","APOGEE":"472.291","PERIGEE":"455.256","DECAYED":"0"},{"COMMENT":"GENERATED VIA SPACETRACK.ORG API","ORIGINATOR":"18 SPCS","NORAD_CAT_ID":"45120","OBJECT_NAME":"VPM","OBJECT_TYPE":"PAYLOAD","CLASSIFICATION_TYPE":"U","INTLDES":"19071K","EPOCH":"2020-06-20 18:17:28","EPOCH_MICROSECONDS":"106304","MEAN_MOTION":"15.3404588","ECCENTRICITY":"0.001244","INCLINATION":"51.6437","RA_OF_ASC_NODE":"347.0465","ARG_OF_PERICENTER":"67.5183","MEAN_ANOMALY":"292.7115","EPHEMERIS_TYPE":"0","ELEMENT_SET_NO":"999","REV_AT_EPOCH":"2152","BSTAR":"0.00011524","MEAN_MOTION_DOT":"0.00003481","MEAN_MOTION_DDOT":"0","FILE":"2769776","TLE_LINE0":"0 VPM","TLE_LINE1":"1 45120U 19071K   20172.76213086  .00003481  00000-0  11524-3 0  9997","TLE_LINE2":"2 45120  51.6437 347.0465 0012440  67.5183 292.7115 15.34045880 21525","OBJECT_ID":"2019-071K","OBJECT_NUMBER":"45120","SEMIMAJOR_AXIS":"6841.892","PERIOD":"93.869","APOGEE":"472.269","PERIGEE":"455.246","DECAYED":"0"},{"COMMENT":"GENERATED VIA SPACETRACK.ORG API","ORIGINATOR":"18 SPCS","NORAD_CAT_ID":"45120","OBJECT_NAME":"VPM","OBJECT_TYPE":"PAYLOAD","CLASSIFICATION_TYPE":"U","INTLDES":"19071K","EPOCH":"2020-06-20 19:51:16","EPOCH_MICROSECONDS":"610976","MEAN_MOTION":"15.34046473","ECCENTRICITY":"0.0012443","INCLINATION":"51.6437","RA_OF_ASC_NODE":"346.7314","ARG_OF_PERICENTER":"67.7266","MEAN_ANOMALY":"292.5034","EPHEMERIS_TYPE":"0","ELEMENT_SET_NO":"999","REV_AT_EPOCH":"2153","BSTAR":"0.00011681","MEAN_MOTION_DOT":"0.00003534","MEAN_MOTION_DDOT":"0","FILE":"2769847","TLE_LINE0":"0 VPM","TLE_LINE1":"1 45120U 19071K   20172.82727559 +.00003534 +00000-0 +11681-3 0  9992","TLE_LINE2":"2 45120 051.6437 346.7314 0012443 067.7266 292.5034 15.34046473021539","OBJECT_ID":"2019-071K","OBJECT_NUMBER":"45120","SEMIMAJOR_AXIS":"6841.891","PERIOD":"93.869","APOGEE":"472.269","PERIGEE":"455.242","DECAYED":"0"},{"COMMENT":"GENERATED VIA SPACETRACK.ORG API","ORIGINATOR":"18 SPCS","NORAD_CAT_ID":"45120","OBJECT_NAME":"VPM","OBJECT_TYPE":"PAYLOAD","CLASSIFICATION_TYPE":"U","INTLDES":"19071K","EPOCH":"2020-06-21 11:29:21","EPOCH_MICROSECONDS":"532416","MEAN_MOTION":"15.34051021","ECCENTRICITY":"0.001244","INCLINATION":"51.6437","RA_OF_ASC_NODE":"343.581","ARG_OF_PERICENTER":"69.9375","MEAN_ANOMALY":"290.2945","EPHEMERIS_TYPE":"0","ELEMENT_SET_NO":"999","REV_AT_EPOCH":"2163","BSTAR":"0.00011478","MEAN_MOTION_DOT":"0.00003466","MEAN_MOTION_DDOT":"0","FILE":"2770181","TLE_LINE0":"0 VPM","TLE_LINE1":"1 45120U 19071K   20173.47872144 +.00003466 +00000-0 +11478-3 0  9993","TLE_LINE2":"2 45120 051.6437 343.5810 0012440 069.9375 290.2945 15.34051021021639","OBJECT_ID":"2019-071K","OBJECT_NUMBER":"45120","SEMIMAJOR_AXIS":"6841.877","PERIOD":"93.869","APOGEE":"472.253","PERIGEE":"455.231","DECAYED":"0"},{"COMMENT":"GENERATED VIA SPACETRACK.ORG API","ORIGINATOR":"18 SPCS","NORAD_CAT_ID":"45120","OBJECT_NAME":"VPM","OBJECT_TYPE":"PAYLOAD","CLASSIFICATION_TYPE":"U","INTLDES":"19071K","EPOCH":"2020-06-21 20:52:12","EPOCH_MICROSECONDS":"397152","MEAN_MOTION":"15.34053414","ECCENTRICITY":"0.0012447","INCLINATION":"51.6438","RA_OF_ASC_NODE":"341.6908","ARG_OF_PERICENTER":"71.2773","MEAN_ANOMALY":"288.9559","EPHEMERIS_TYPE":"0","ELEMENT_SET_NO":"999","REV_AT_EPOCH":"2169","BSTAR":"0.00010954","MEAN_MOTION_DOT":"0.00003291","MEAN_MOTION_DDOT":"0","FILE":"2770378","TLE_LINE0":"0 VPM","TLE_LINE1":"1 45120U 19071K   20173.86958793 +.00003291 +00000-0 +10954-3 0  9995","TLE_LINE2":"2 45120 051.6438 341.6908 0012447 071.2773 288.9559 15.34053414021691","OBJECT_ID":"2019-071K","OBJECT_NUMBER":"45120","SEMIMAJOR_AXIS":"6841.870","PERIOD":"93.868","APOGEE":"472.251","PERIGEE":"455.219","DECAYED":"0"}]